[{"OBJECT_NAME":"STARLINK-36670","OBJECT_ID":"2026-033H","EPOCH":"2026-03-14T14:00:01.999872","MEAN_MOTION":15.67066238,"ECCENTRICITY":0.00014599,"INCLINATION":42.999,"RA_OF_ASC_NODE":241.7012,"ARG_OF_PERICENTER":278.4156,"MEAN_ANOMALY":173.7544,"EPHEMERIS_TYPE":0,"CLASSIFICATION_TYPE":"U","NORAD_CAT_ID":67828,"ELEMENT_SET_NO":999,"REV_AT_EPOCH":545,"BSTAR":-0.020011567,"MEAN_MOTION_DOT":-0.01942045,"MEAN_MOTION_DDOT":0},{"OBJECT_NAME":"STARLINK-36144","OBJECT_ID":"2026-033J","EPOCH":"2026-03-14T14:00:01.999872","MEAN_MOTION":15.65948439,"ECCENTRICITY":0.00014806,"INCLINATION":42.999,"RA_OF_ASC_NODE":241.7272,"ARG_OF_PERICENTER":276.8896,"MEAN_ANOMALY":164.6181,"EPHEMERIS_TYPE":0,"CLASSIFICATION_TYPE":"U","NORAD_CAT_ID":67829,"ELEMENT_SET_NO":999,"REV_AT_EPOCH":545,"BSTAR":-0.020943355,"MEAN_MOTION_DOT":-0.01941744,"MEAN_MOTION_DDOT":0},{"OBJECT_NAME":"STARLINK-36611","OBJECT_ID":"2026-033K","EPOCH":"2026-03-14T14:00:01.999872","MEAN_MOTION":15.68110575,"ECCENTRICITY":0.0001469,"INCLINATION":42.9989,"RA_OF_ASC_NODE":241.6473,"ARG_OF_PERICENTER":277.5569,"MEAN_ANOMALY":196.139,"EPHEMERIS_TYPE":0,"CLASSIFICATION_TYPE":"U","NORAD_CAT_ID":67830,"ELEMENT_SET_NO":999,"REV_AT_EPOCH":545,"BSTAR":-0.019176174,"MEAN_MOTION_DOT":-0.01942829,"MEAN_MOTION_DDOT":0},{"OBJECT_NAME":"STARLINK-36661","OBJECT_ID":"2026-033L","EPOCH":"2026-03-14T14:00:01.999872","MEAN_MOTION":15.62595105,"ECCENTRICITY":0.00016159,"INCLINATION":42.9995,"RA_OF_ASC_NODE":241.834,"ARG_OF_PERICENTER":270.3766,"MEAN_ANOMALY":128.3778,"EPHEMERIS_TYPE":0,"CLASSIFICATION_TYPE":"U","NORAD_CAT_ID":67831,"ELEMENT_SET_NO":999,"REV_AT_EPOCH":545,"BSTAR":-0.023966375,"MEAN_MOTION_DOT":-0.01942402,"MEAN_MOTION_DDOT":0},{"OBJECT_NAME":"STARLINK-36662","OBJECT_ID":"2026-033M","EPOCH":"2026-03-14T14:30:49.853088","MEAN_MOTION":15.84526221,"ECCENTRICITY":0.00031278,"INCLINATION":42.9964,"RA_OF_ASC_NODE":240.2934,"ARG_OF_PERICENTER":298.7172,"MEAN_ANOMALY":61.3386,"EPHEMERIS_TYPE":0,"CLASSIFICATION_TYPE":"U","NORAD_CAT_ID":67832,"ELEMENT_SET_NO":999,"REV_AT_EPOCH":541,"BSTAR":0.0027131546,"MEAN_MOTION_DOT":0.00696869,"MEAN_MOTION_DDOT":0},{"OBJECT_NAME":"STARLINK-36659","OBJECT_ID":"2026-033N","EPOCH":"2026-03-12T20:13:40.622592","MEAN_MOTION":15.81357226,"ECCENTRICITY":0.00018161,"INCLINATION":42.997,"RA_OF_ASC_NODE":252.0859,"ARG_OF_PERICENTER":307.9497,"MEAN_ANOMALY":52.121,"EPHEMERIS_TYPE":0,"CLASSIFICATION_TYPE":"U","NORAD_CAT_ID":67833,"ELEMENT_SET_NO":999,"REV_AT_EPOCH":512,"BSTAR":-0.0025045565,"MEAN_MOTION_DOT":-0.00484356,"MEAN_MOTION_DDOT":0},{"OBJECT_NAME":"STARLINK-36655","OBJECT_ID":"2026-033P","EPOCH":"2026-03-14T14:00:01.999872","MEAN_MOTION":15.68126396,"ECCENTRICITY":0.0001262,"INCLINATION":42.9988,"RA_OF_ASC_NODE":241.6154,"ARG_OF_PERICENTER":273.0867,"MEAN_ANOMALY":213.5992,"EPHEMERIS_TYPE":0,"CLASSIFICATION_TYPE":"U","NORAD_CAT_ID":67834,"ELEMENT_SET_NO":999,"REV_AT_EPOCH":545,"BSTAR":-0.019207533,"MEAN_MOTION_DOT":-0.01946607,"MEAN_MOTION_DDOT":0},{"OBJECT_NAME":"STARLINK-36657","OBJECT_ID":"2026-033Q","EPOCH":"2026-03-14T14:00:01.999872","MEAN_MOTION":15.72220008,"ECCENTRICITY":0.00013251,"INCLINATION":42.999,"RA_OF_ASC_NODE":241.4992,"ARG_OF_PERICENTER":271.7664,"MEAN_ANOMALY":261.038,"EPHEMERIS_TYPE":0,"CLASSIFICATION_TYPE":"U","NORAD_CAT_ID":67835,"ELEMENT_SET_NO":999,"REV_AT_EPOCH":545,"BSTAR":-0.016093224,"MEAN_MOTION_DOT":-0.01939682,"MEAN_MOTION_DDOT":0},{"OBJECT_NAME":"STARLINK-36650","OBJECT_ID":"2026-033R","EPOCH":"2026-03-14T14:00:01.999872","MEAN_MOTION":15.63788899,"ECCENTRICITY":0.00014435,"INCLINATION":42.999,"RA_OF_ASC_NODE":241.7433,"ARG_OF_PERICENTER":274.3749,"MEAN_ANOMALY":160.8338,"EPHEMERIS_TYPE":0,"CLASSIFICATION_TYPE":"U","NORAD_CAT_ID":67836,"ELEMENT_SET_NO":999,"REV_AT_EPOCH":545,"BSTAR":-0.022850535,"MEAN_MOTION_DOT":-0.01941887,"MEAN_MOTION_DDOT":0},{"OBJECT_NAME":"STARLINK-36649","OBJECT_ID":"2026-033S","EPOCH":"2026-03-14T14:00:01.999872","MEAN_MOTION":15.67697501,"ECCENTRICITY":0.0001403,"INCLINATION":42.9989,"RA_OF_ASC_NODE":241.5954,"ARG_OF_PERICENTER":275.4786,"MEAN_ANOMALY":218.8548,"EPHEMERIS_TYPE":0,"CLASSIFICATION_TYPE":"U","NORAD_CAT_ID":67837,"ELEMENT_SET_NO":999,"REV_AT_EPOCH":545,"BSTAR":-0.019487675,"MEAN_MOTION_DOT":-0.019411,"MEAN_MOTION_DDOT":0},{"OBJECT_NAME":"STARLINK-36654","OBJECT_ID":"2026-033T","EPOCH":"2026-03-14T14:00:01.999872","MEAN_MOTION":15.6569139,"ECCENTRICITY":0.00014273,"INCLINATION":42.9986,"RA_OF_ASC_NODE":241.6502,"ARG_OF_PERICENTER":279.4644,"MEAN_ANOMALY":192.5855,"EPHEMERIS_TYPE":0,"CLASSIFICATION_TYPE":"U","NORAD_CAT_ID":67838,"ELEMENT_SET_NO":999,"REV_AT_EPOCH":545,"BSTAR":-0.021191495,"MEAN_MOTION_DOT":-0.0194399,"MEAN_MOTION_DDOT":0},{"OBJECT_NAME":"STARLINK-36652","OBJECT_ID":"2026-033U","EPOCH":"2026-03-14T14:00:01.999872","MEAN_MOTION":15.6398699,"ECCENTRICITY":0.00014841,"INCLINATION":42.9991,"RA_OF_ASC_NODE":241.703,"ARG_OF_PERICENTER":276.4168,"MEAN_ANOMALY":174.6616,"EPHEMERIS_TYPE":0,"CLASSIFICATION_TYPE":"U","NORAD_CAT_ID":67839,"ELEMENT_SET_NO":999,"REV_AT_EPOCH":545,"BSTAR":-0.022704032,"MEAN_MOTION_DOT":-0.01944464,"MEAN_MOTION_DDOT":0},{"OBJECT_NAME":"STARLINK-36651","OBJECT_ID":"2026-033V","EPOCH":"2026-03-14T14:00:01.999872","MEAN_MOTION":15.65508879,"ECCENTRICITY":0.00013625,"INCLINATION":42.999,"RA_OF_ASC_NODE":241.635,"ARG_OF_PERICENTER":278.653,"MEAN_ANOMALY":199.424,"EPHEMERIS_TYPE":0,"CLASSIFICATION_TYPE":"U","NORAD_CAT_ID":67840,"ELEMENT_SET_NO":999,"REV_AT_EPOCH":545,"BSTAR":-0.021306215,"MEAN_MOTION_DOT":-0.01940507,"MEAN_MOTION_DDOT":0},{"OBJECT_NAME":"STARLINK-36656","OBJECT_ID":"2026-033W","EPOCH":"2026-03-14T14:00:01.999872","MEAN_MOTION":15.66608403,"ECCENTRICITY":0.00013697,"INCLINATION":42.9988,"RA_OF_ASC_NODE":241.5871,"ARG_OF_PERICENTER":274.9317,"MEAN_ANOMALY":222.5371,"EPHEMERIS_TYPE":0,"CLASSIFICATION_TYPE":"U","NORAD_CAT_ID":67841,"ELEMENT_SET_NO":999,"REV_AT_EPOCH":545,"BSTAR":-0.020368464,"MEAN_MOTION_DOT":-0.01940107,"MEAN_MOTION_DDOT":0},{"OBJECT_NAME":"STARLINK-36653","OBJECT_ID":"2026-033X","EPOCH":"2026-03-14T14:00:01.999872","MEAN_MOTION":15.65599066,"ECCENTRICITY":0.00013462,"INCLINATION":42.9988,"RA_OF_ASC_NODE":241.6104,"ARG_OF_PERICENTER":279.0845,"MEAN_ANOMALY":208.8587,"EPHEMERIS_TYPE":0,"CLASSIFICATION_TYPE":"U","NORAD_CAT_ID":67842,"ELEMENT_SET_NO":999,"REV_AT_EPOCH":545,"BSTAR":-0.021191213,"MEAN_MOTION_DOT":-0.01937491,"MEAN_MOTION_DDOT":0},{"OBJECT_NAME":"STARLINK-36589","OBJECT_ID":"2026-033Y","EPOCH":"2026-03-14T14:00:01.999872","MEAN_MOTION":15.66646397,"ECCENTRICITY":0.00013041,"INCLINATION":42.999,"RA_OF_ASC_NODE":241.5646,"ARG_OF_PERICENTER":275.7709,"MEAN_ANOMALY":230.7704,"EPHEMERIS_TYPE":0,"CLASSIFICATION_TYPE":"U","NORAD_CAT_ID":67843,"ELEMENT_SET_NO":999,"REV_AT_EPOCH":545,"BSTAR":-0.020315732,"MEAN_MOTION_DOT":-0.01938282,"MEAN_MOTION_DDOT":0}]
